#dP2019  8  1  0  0  0.00000000      96 __u+U ITR00 FIT  IAC
## 2064 345600.00000000   900.00000000 58696 0.0000000000000
+   97   C01C03C05C06C07C08C09C10C11C12C13C14C16E01E02E03E04
+        E05E07E08E09E11E12E13E14E15E18E19E21E24E25E26E27E30
+        E31E33E36G01G02G03G04G05G06G07G08G09G10G11G12G13G14
+        G15G16G17G18G19G20G21G22G23G24G25G26G27G28G29G30G31
+        G32J01J02J03J07R01R02R03R04R05R07R08R09R10R11R12R13
+        R14R15R16R17R18R19R20R21R22R23R24R26  0  0  0  0  0
++        13 13 12  9  8  8  8  8  8  8  8  8  8  5  5  5  5
++         6  5  6  5  5  5  5  5  5  5  5  5  5  5  5  5  5
++         5  5  5  4  4  4  4  3  3  4  3  4  3  4  4  4  4
++         3  3  3  3  4  3  4  4  4  4  3  3  3  4  3  4  4
++         4  9 10  9 14  5  5  5  6  5  5  5  5  5  5  5  6
++         5  5  6  5  5  6  6  5  6  5  6  8  0  0  0  0  0
%c M  cc GPS ccc cccc cccc cccc cccc ccccc ccccc ccccc ccccc
%c cc cc ccc ccc cccc cccc cccc cccc ccccc ccccc ccccc ccccc
%f  0.0000000  0.000000000  0.00000000000  0.000000000000000
%f  0.0000000  0.000000000  0.00000000000  0.000000000000000
%i    0    0    0    0      0      0      0      0         0
%i    0    0    0    0      0      0      0      0         0
/*                                                          
/*   RSA / INFORMATION & ANALYSIS CENTER (IAC) OF MCC       
/*   ULTRA-RAPID DETERMINATION                              
/* PCV:IGS14_2056 OL/AL:FES2004  NONE     YN ORB:CoN CLK:CoN
*  2019 08 01  7 15  0.00000000
PC01 -32341.608917  27036.757853   -289.708245    202.225786
PC03 -14845.696786  39468.240392    594.427256    885.103358
PC05  21853.843217  36064.218207    877.678216   -464.378987
PC06 -21814.837523  35701.235795  -6320.913132    506.157466
PC07  -7812.599151  31354.940174 -26698.572445    -38.308314
PC08 -16813.075380  18671.815106  33848.227337    167.745790
PC09 -11894.621438  35590.102927 -19325.918039   -143.286842
PC10   4018.164095  37976.962232 -17226.268626    -40.157761
PC11  20313.195033 -17559.613272  -7673.982428    237.684162
PC12  21797.982393    554.123124  17522.705330    924.504416
PC13  -2210.666257  23145.002989  35220.805428   -881.385935
PC14  14454.661155 -11290.064203 -20956.028153    518.119456
PC16 -20001.139487  36282.005043  -8266.388852   -881.881924
PE01 -21451.045589 -18419.693487  -8776.541888   -659.210079
PE02  21464.949221  18363.634998   8843.811287     71.910271
PE03  13848.168633  10798.171792 -23820.859778   -194.613791
PE04 -19469.109482  10550.058966  19650.554850   -335.238391
PE05     46.633824  26038.384931 -14065.388687   -461.402477
PE07  13687.807867 -25970.311348  -3836.295434   -237.587404
PE08  19273.396310 -10902.280846 -19643.350255   6314.829979
PE09 -13455.530733  26073.497262   3845.061923   6361.361240
PE11 -16850.569441  15179.943366  19018.196006   5638.077207
PE12 -29037.883373   5453.472721   1934.182390   6270.048808
PE13  16892.258295 -15170.851707 -18990.583373    390.800584
PE14  -4553.521171 -22087.762769 -22913.893106   -664.598310
PE15  28932.654136  -5814.101197  -2294.519187    901.056759
PE18  -2677.800340  19128.432768  14429.626811   -759.776990
PE19 -12625.163406 -12757.445750  23546.874364     -4.817323
PE21 -11120.119836 -25461.393622  10229.074248   -547.141598
PE24  -5744.119599  17683.505385 -23041.422684   5947.234072
PE25  11060.198784  25446.087369 -10287.115177   1724.713128
PE26  -5075.686121 -15849.039239 -24480.575566   4274.804778
PE27   5808.864235 -17513.827735  23153.020672    417.300423
PE30  19239.457743    615.225028  22480.668420   4664.650711
PE31 -19284.573139   -708.077328 -22440.178486   -466.961017
PE33 -24053.409280  -6969.825559 -15783.799114   -469.823651
PE36   5082.152916  15659.144698  24597.737312    680.379668
PG01 -17727.556304 -13772.568743 -14641.038784    -83.603379
PG02  -4165.880883  15147.631908  22020.846370   -273.047814
PG03 -13235.025549 -21582.692598   8136.992689    177.546594
PG04  12230.870928 -22840.354114  -4586.139835     45.336530
PG05    773.602852  24147.233759  10668.670190     -0.312450
PG06 -19300.091115   7642.830779  16626.798581    -11.276502
PG07 -25943.067265  -6707.471718   1553.053025    -76.068130
PG08  -1598.662946 -18276.551154 -19100.701371     -0.971525
PG09 -18021.007959   -233.570939  19471.633103    358.047622
PG10  13988.672634  -5782.743089 -21756.627367    -36.266938
PG11 -13537.663148 -12330.598128 -19690.344347   -546.718058
PG12  10046.697539  24040.003618   5367.036186    218.388952
PG13  -9177.905006  20821.357412 -13761.020865    -51.866915
PG14  18490.025479 -18915.593428    982.643302    -68.762412
PG15   4355.828292  18228.026528 -18950.169275   -297.131013
PG16   1809.953523 -23757.508375  11076.164630    -61.125622
PG17 -20805.533443  14777.080681  -6792.663145     98.833588
PG18  -9099.283639 -15647.124034 -19980.044669     74.412258
PG19 -20109.133971  17349.656962  -1490.097068   -286.740332
PG20  17836.916716   3654.231341 -19491.834532    526.251364
PG21  26213.364140   2036.346803  -2212.949974   -144.285604
PG22 -10953.338040 -24243.636122    848.993612   -738.461651
PG23  -9876.486699 -12532.921456  21541.223221   -174.437154
PG24  15537.543812  14406.051691 -16372.938475     -0.173698
PG25  16104.632733  13918.849504  15829.886959     -4.727410
PG26   7701.148753 -17317.992225  18515.689906      4.503841
PG27  10077.224797 -22145.043497 -10396.662086    -10.734440
PG28 -13661.669403   5000.016008 -21625.497478    765.570328
PG29  15614.049666   4130.940483  21052.762264    136.565338
PG30 -24941.893185    934.644347  -9336.719523    -10.596059
PG31  18371.700306  -8352.912444  17486.406685     20.394775
PG32  20269.797960 -15271.012474  -7553.273027      2.008163
PJ01 -26929.542476  26438.039079  23801.235827   -265.063768
PJ02 -23742.376015  16248.640230 -26407.671940     -1.805202
PJ03 -27739.340370  31724.820377   4032.182958     -0.214628
PJ07 -25411.776404  33642.339747     -3.887558     -0.029631
PR01   5606.346956  18002.332022 -17166.747917     47.536098
PR02  11373.974877  -3024.227314 -22583.427088    381.115626
PR03   9601.058873 -19791.671494 -12833.491026     -0.752377
PR04   1903.191332 -24961.011429   4877.059672    315.996522
PR05  -6246.794225 -15997.930157  18865.035277     33.000902
PR07  -9508.983558  20159.055194  12475.714971    -24.325604
PR08  -2395.962700  25075.766604  -3991.460030     16.437188
PR09 -18570.423873  -4809.228120 -16837.513073     83.090653
PR10  -8498.841813   6823.736120 -23081.500449     55.708162
PR11   8024.261140  17295.846747 -16896.990120    -74.539282
PR12  18996.077137  16928.436715  -1875.198940     48.840302
PR13  19349.799910   6434.867983  15303.824515    -26.603451
PR14   8337.874866  -7326.456859  22981.320012     41.514663
PR15  -7345.117886 -16986.648714  17582.482232    103.357582
PR16 -19270.982796 -16532.779669   1714.543611      6.770882
PR17  20636.303022 -11952.151586  -9106.644821    248.304471
PR18   6333.398858 -12539.245352 -21270.003140      2.277386
PR19 -11020.597558  -6697.700906 -22012.526719    -45.567004
PR20 -23685.989952   3839.229367  -8714.724468   -386.060017
PR21 -20214.419147  12063.702455   9781.402078    -63.264255
PR22  -3620.417305  11941.708068  22265.885431    -31.046866
PR23  16069.052411   3566.917156  19473.405839    244.364655
PR24  23984.120444  -5313.643764   6818.541654   -183.209313
PR26 -22582.837188   2589.334787 -11538.610549    -13.482502
EOF
